norad_id,name,regime,epoch,line1,line2,inclination,eccentricity,mean_motion,raan,arg_pericenter,mean_anomaly
19751,COSMOS 1989 (ETALON 1),NSO,93061.07946589,1 19751U 89001  C 93061.07946589  .00000060 +00000-0 +00000-4 0 06603\,2 19751 064.9048 125.8454 0010540 245.8351 114.1223 02.13156061032243,64.9048,0.001054,2.13156061,125.8454,245.8351,114.1223
19751,COSMOS 1989 (ETALON 1),NSO,93062.01774992,1 19751U 89001  C 93062.01774992  .00000060 +00000-0 +00000-4 0 06605\,2 19751 064.9048 125.8151 0010530 245.8562 114.1011 02.13156043032267,64.9048,0.001053,2.13156043,125.8151,245.8562,114.1011
19751,COSMOS 1989 (ETALON 1),NSO,93064.36346560,1 19751U 89001  C 93064.36346560  .00000060 +00000-0 +00000-4 0 06601\,2 19751 064.9054 125.7356 0010537 245.7653 114.2007 02.13156037032312,64.9054,0.0010537,2.13156037,125.7356,245.7653,114.2007
19751,COSMOS 1989 (ETALON 1),NSO,93065.30175343,1 19751U 89001  C 93065.30175343  .00000060 +00000-0 +00000-4 0 06616\,2 19751 064.9055 125.7042 0010538 245.7595 114.2105 02.13156037032332,64.9055,0.0010538,2.13156037,125.7042,245.7595,114.2105
19751,COSMOS 1989 (ETALON 1),NSO,93066.70918191,1 19751U 89001  C 93066.70918191  .00000060 +00000-0 +00000-4 0 06617\,2 19751 064.9056 125.6570 0010540 245.7506 114.2239 02.13156037032364,64.9056,0.001054,2.13156037,125.657,245.7506,114.2239
19751,COSMOS 1989 (ETALON 1),NSO,93068.11660591,1 19751U 89001  C 93068.11660591  .00000060 +00000-0 +00000-4 0 06612\,2 19751 064.9056 125.6102 0010529 245.8678 114.1069 02.13156040032390,64.9056,0.0010529,2.1315604,125.6102,245.8678,114.1069
19751,COSMOS 1989 (ETALON 1),NSO,93069.99316345,1 19751U 89001  C 93069.99316345  .00000060 +00000-0 +00000-4 0 06614\,2 19751 064.9062 125.5470 0010521 246.0216 113.9487 02.13156063032438,64.9062,0.0010521,2.13156063,125.547,246.0216,113.9487
19751,COSMOS 1989 (ETALON 1),NSO,93071.40057718,1 19751U 89001  C 93071.40057718  .00000060 +00000-0 +00000-4 0 06619\,2 19751 064.9058 125.5000 0010525 246.1783 113.7828 02.13156040032461,64.9058,0.0010525,2.1315604,125.5,246.1783,113.7828
19751,COSMOS 1989 (ETALON 1),NSO,93072.80799753,1 19751U 89001  C 93072.80799753  .00000060 +00000-0 +00000-4 0 06616\,2 19751 064.9063 125.4527 0010533 246.1185 113.8390 02.13156012032492,64.9063,0.0010533,2.13156012,125.4527,246.1185,113.839
19751,COSMOS 1989 (ETALON 1),NSO,93073.74627692,1 19751U 89001  C 93073.74627692  .00000060 +00000-0 +00000-4 0 06612\,2 19751 064.9064 125.4212 0010535 246.1126 113.8432 02.13156012032511,64.9064,0.0010535,2.13156012,125.4212,246.1126,113.8432
19751,COSMOS 1989 (ETALON 1),NSO,93074.21541805,1 19751U 89001  C 93074.21541805  .00000060 +00000-0 +00000-4 0 06616\,2 19751 064.9067 125.4048 0010541 245.8927 114.0631 02.13155992032524,64.9067,0.0010541,2.13155992,125.4048,245.8927,114.0631
19751,COSMOS 1989 (ETALON 1),NSO,93075.62284410,1 19751U 89001  C 93075.62284410  .00000060 +00000-0 +00000-4 0 06629\,2 19751 064.9069 125.3576 0010543 245.8839 114.0739 02.13155992032557,64.9069,0.0010543,2.13155992,125.3576,245.8839,114.0739
19751,COSMOS 1989 (ETALON 1),NSO,93076.09198710,1 19751U 89001  C 93076.09198710  .00000060 +00000-0 +00000-4 0 06628\,2 19751 064.9069 125.3417 0010548 245.8448 114.1145 02.13155988032560,64.9069,0.0010548,2.13155988,125.3417,245.8448,114.1145
19751,COSMOS 1989 (ETALON 1),NSO,93077.96856130,1 19751U 89001  C 93077.96856130  .00000060 +00000-0 +00000-4 0 06622\,2 19751 064.9070 125.2788 0010557 245.7994 114.1674 02.13155989032600,64.907,0.0010557,2.13155989,125.2788,245.7994,114.1674
19751,COSMOS 1989 (ETALON 1),NSO,93078.90684844,1 19751U 89001  C 93078.90684844  .00000060 +00000-0 +00000-4 0 06628\,2 19751 064.9067 125.2475 0010569 245.7530 114.2176 02.13155991032621,64.9067,0.0010569,2.13155991,125.2475,245.753,114.2176
19751,COSMOS 1989 (ETALON 1),NSO,93079.84513405,1 19751U 89001  C 93079.84513405  .00000060 +00000-0 +00000-4 0 06626\,2 19751 064.9069 125.2160 0010570 245.7472 114.2262 02.13155991032649,64.9069,0.001057,2.13155991,125.216,245.7472,114.2262
19751,COSMOS 1989 (ETALON 1),NSO,93082.19084368,1 19751U 89001  C 93082.19084368  .00000016 +00000-0 +99999-4 0 06647\,2 19751 064.9066 125.1380 0010556 245.8776 114.0989 02.13156010032693,64.9066,0.0010556,2.1315601,125.138,245.8776,114.0989
19751,COSMOS 1989 (ETALON 1),NSO,93082.19084400,1 19751U 89001  C 93082.19084400  .00000060 +00000-0 +00000-4 0 06637\,2 19751 064.9069 125.1377 0010564 245.8261 114.1503 02.13156005032697,64.9069,0.0010564,2.13156005,125.1377,245.8261,114.1503
19751,COSMOS 1989 (ETALON 1),NSO,93082.65998381,1 19751U 89001  C 93082.65998381  .00000060 +00000-0 +00000-4 0 06641\,2 19751 064.9068 125.1219 0010565 245.8428 114.1342 02.13156028032705,64.9068,0.0010565,2.13156028,125.1219,245.8428,114.1342
19751,COSMOS 1989 (ETALON 1),NSO,93083.59826132,1 19751U 89001  C 93083.59826132  .00000060 +00000-0 +00000-4 0 06649\,2 19751 064.9073 125.0918 0010522 246.3419 113.6292 02.13156028032725,64.9073,0.0010522,2.13156028,125.0918,246.3419,113.6292
19751,COSMOS 1989 (ETALON 1),NSO,93085.00568194,1 19751U 89001  C 93085.00568194  .00000060 +00000-0 +00000-4 0 06648\,2 19751 064.9075 125.0446 0010523 246.3331 113.6359 02.13156028032754,64.9075,0.0010523,2.13156028,125.0446,246.3331,113.6359
19751,COSMOS 1989 (ETALON 1),NSO,93085.94395944,1 19751U 89001  C 93085.94395944  .00000060 +00000-0 +00000-4 0 06642\,2 19751 064.9076 125.0132 0010525 246.3271 113.6381 02.13156028032779,64.9076,0.0010525,2.13156028,125.0132,246.3271,113.6381
19751,COSMOS 1989 (ETALON 1),NSO,93086.88223634,1 19751U 89001  C 93086.88223634  .00000060 +00000-0 +00000-4 0 06642\,2 19751 064.9080 124.9820 0010526 246.2822 113.6791 02.13156026032793,64.908,0.0010526,2.13156026,124.982,246.2822,113.6791
19751,COSMOS 1989 (ETALON 1),NSO,93087.82051519,1 19751U 89001  C 93087.82051519  .00000060 +00000-0 +00000-4 0 06648\,2 19751 064.9081 124.9506 0010527 246.2762 113.6823 02.13156026032818,64.9081,0.0010527,2.13156026,124.9506,246.2762,113.6823
19751,COSMOS 1989 (ETALON 1),NSO,93090.16621832,1 19751U 89001  C 93090.16621832  .00000060 +00000-0 +00000-4 0 06651\,2 19751 064.9082 124.8728 0010505 246.3295 113.6279 02.13156045032863,64.9082,0.0010505,2.13156045,124.8728,246.3295,113.6279
19751,COSMOS 1989 (ETALON 1),NSO,93091.10450190,1 19751U 89001  C 93091.10450190  .00000060 +00000-0 +00000-4 0 06653\,2 19751 064.9081 124.8414 0010501 246.3416 113.6170 02.13156043032885,64.9081,0.0010501,2.13156043,124.8414,246.3416,113.617
19751,COSMOS 1989 (ETALON 1),NSO,93091.57364545,1 19751U 89001  C 93091.57364545  .00000060 +00000-0 +00000-4 0 06652\,2 19751 064.9082 124.8257 0010502 246.3388 113.6213 02.13156043032899,64.9082,0.0010502,2.13156043,124.8257,246.3388,113.6213
19751,COSMOS 1989 (ETALON 1),NSO,93092.98107325,1 19751U 89001  C 93092.98107325  .00000060 +00000-0 +00000-4 0 06659\,2 19751 064.9084 124.7787 0010500 246.3715 113.5920 02.13156037032921,64.9084,0.00105,2.13156037,124.7787,246.3715,113.592
19751,COSMOS 1989 (ETALON 1),NSO,93093.91935802,1 19751U 89001  C 93093.91935802  .00000060 +00000-0 +00000-4 0 06652\,2 19751 064.9085 124.7475 0010503 246.3537 113.6111 02.13156031032940,64.9085,0.0010503,2.13156031,124.7475,246.3537,113.6111
19751,COSMOS 1989 (ETALON 1),NSO,93095.79591822,1 19751U 89001  C 93095.79591822  .00000060 +00000-0 +00000-4 0 06650\,2 19751 064.9094 124.6844 0010493 246.3354 113.6264 02.13156034032980,64.9094,0.0010493,2.13156034,124.6844,246.3354,113.6264
19751,COSMOS 1989 (ETALON 1),NSO,93097.20333201,1 19751U 89001  C 93097.20333201  .00000060 +00000-0 +00000-4 0 06653\,2 19751 064.9093 124.6362 0010498 245.9687 113.9869 02.13156023033010,64.9093,0.0010498,2.13156023,124.6362,245.9687,113.9869
19751,COSMOS 1989 (ETALON 1),NSO,93099.07987899,1 19751U 89001  C 93099.07987899  .00000060 +00000-0 +00000-4 0 06658\,2 19751 064.9087 124.5725 0010498 245.8133 114.1287 02.13156006033052,64.9087,0.0010498,2.13156006,124.5725,245.8133,114.1287
19751,COSMOS 1989 (ETALON 1),NSO,93099.54901804,1 19751U 89001  C 93099.54901804  .00000060 +00000-0 +00000-4 0 06652\,2 19751 064.9087 124.5568 0010499 245.8105 114.1299 02.13156006033061,64.9087,0.0010499,2.13156006,124.5568,245.8105,114.1299
19751,COSMOS 1989 (ETALON 1),NSO,93100.95643400,1 19751U 89001  C 93100.95643400  .00000060 +00000-0 +00000-4 0 06655\,2 19751 064.9089 124.5096 0010500 245.8018 114.1329 02.13156006033092,64.9089,0.00105,2.13156006,124.5096,245.8018,114.1329
19751,COSMOS 1989 (ETALON 1),NSO,93103.30213867,1 19751U 89001  C 93103.30213867  .00000060 +00000-0 +00000-4 0 06657\,2 19751 064.9092 124.4310 0010503 245.7874 114.1467 02.13156006033145,64.9092,0.0010503,2.13156006,124.431,245.7874,114.1467
19751,COSMOS 1989 (ETALON 1),NSO,93103.77128558,1 19751U 89001  C 93103.77128558  .00000060 +00000-0 +00000-4 0 06650\,2 19751 064.9091 124.4158 0010524 245.9810 113.9536 02.13155958033159,64.9091,0.0010524,2.13155958,124.4158,245.981,113.9536
19751,COSMOS 1989 (ETALON 1),NSO,93104.24042794,1 19751U 89001  C 93104.24042794  .00000060 +00000-0 +00000-4 0 06650\,2 19751 064.9094 124.3999 0010528 245.8506 114.0855 02.13155956033164,64.9094,0.0010528,2.13155956,124.3999,245.8506,114.0855
19751,COSMOS 1989 (ETALON 1),NSO,93105.17871350,1 19751U 89001  C 93105.17871350  .00000016 +00000-0 +99999-4 0 06668\,2 19751 064.9095 124.3689 0010528 246.0169 113.9208 02.13155958033183,64.9095,0.0010528,2.13155958,124.3689,246.0169,113.9208
19751,COSMOS 1989 (ETALON 1),NSO,93106.11699946,1 19751U 89001  C 93106.11699946  .00000060 +00000-0 +00000-4 0 06666\,2 19751 064.9097 124.3371 0010537 245.9954 113.9450 02.13155953033200,64.9097,0.0010537,2.13155953,124.3371,245.9954,113.945
19751,COSMOS 1989 (ETALON 1),NSO,93107.05528617,1 19751U 89001  C 93107.05528617  .00000060 +00000-0 +00000-4 0 06666\,2 19751 064.9104 124.3055 0010561 245.8726 114.0716 02.13155959033226,64.9104,0.0010561,2.13155959,124.3055,245.8726,114.0716
